NORAD_CAT_ID,OBJECT_NAME,OBJECT_TYPE,EPOCH,MEAN_MOTION,ECCENTRICITY,INCLINATION,RA_OF_ASC_NODE,ARG_OF_PERICENTER,MEAN_ANOMALY,BSTAR,MEAN_MOTION_DOT,MEAN_MOTION_DDOT,TLE_LINE0,TLE_LINE1,TLE_LINE2,SEMIMAJOR_AXIS,PERIOD,APOGEE,PERIGEE,DECAYED
56795.0,STARLINK-6061,PAYLOAD,2024-06-25 22:17:45,14.99135703,0.0002855,69.9998,91.9806,264.6745,95.4089,0.00013459,1.546e-05,0.0,0 STARLINK-6061,1 56795U 23078AE  24177.92899728  .00001546  00000-0  13459-3 0  9998,2 56795  69.9998  91.9806 0002855 264.6745  95.4089 14.99135703 60048,6947.702,96.055,571.551,567.584,0.0
56795.0,STARLINK-6061,PAYLOAD,2024-06-26 04:42:04,14.99148471,0.0002906,70.0001,91.3075,269.3189,90.7637,8.3405e-05,9.23e-06,0.0,0 STARLINK-6061,1 56795U 23078AE  24178.19588571  .00000923  00000-0  83405-4 0  9996,2 56795  70.0001  91.3075 0002906 269.3189  90.7637 14.99148471 60345,6947.663,96.055,571.547,567.509,0.0
56795.0,STARLINK-6061,PAYLOAD,2024-06-26 22:18:59,14.9913398,0.0002427,70.0011,89.4558,255.323,104.766,-1.6992e-05,-3.01e-06,0.0,0 STARLINK-6061,1 56795U 23078AE  24178.92986097 -.00000301  00000-0 -16992-4 0  9991,2 56795  70.0011  89.4558 0002427 255.3230 104.7660 14.99133980 60194,6947.708,96.055,571.259,567.887,0.0
56795.0,STARLINK-6061,PAYLOAD,2024-06-27 03:07:14,14.99133165,0.0002417,70.0012,88.9506,256.4432,103.6459,-2.4508e-05,-3.92e-06,0.0,0 STARLINK-6061,1 56795U 23078AE  24179.13003457 -.00000392  00000-0 -24508-4 0  9997,2 56795  70.0012  88.9506 0002417 256.4432 103.6459 14.99133165 60488,6947.71,96.056,571.255,567.896,0.0
56795.0,STARLINK-6061,PAYLOAD,2024-06-27 22:20:14,14.99138571,0.0002836,70.0002,86.9278,265.2127,94.8709,-9.5271e-05,-1.254e-05,0.0,0 STARLINK-6061,1 56795U 23078AE  24179.93072112 -.00001254  00000-0 -95271-4 0  9992,2 56795  70.0002  86.9278 0002836 265.2127  94.8709 14.99138571 60345,6947.694,96.055,571.529,567.588,0.0
56795.0,STARLINK-6061,PAYLOAD,2024-06-28 03:08:28,14.99142728,0.0002806,70.0003,86.4223,266.9084,93.1755,-5.4609e-05,-7.59e-06,0.0,0 STARLINK-6061,1 56795U 23078AE  24180.13088919 -.00000759  00000-0 -54609-4 0  9997,2 56795  70.0003  86.4223 0002806 266.9084  93.1755 14.99142728 60632,6947.681,96.055,571.495,567.596,0.0
56795.0,STARLINK-6061,PAYLOAD,2024-06-28 11:08:53,14.99146846,0.0003004,70.0,85.5795,271.5177,88.5639,-5.0649e-05,-7.11e-06,0.0,0 STARLINK-6061,1 56795U 23078AE  24180.46450439 -.00000711  00000-0 -50649-4 0  9991,2 56795  70.0000  85.5795 0003004 271.5177  88.5639 14.99146846 60420,6947.668,96.055,571.62,567.446,0.0
56795.0,STARLINK-6061,PAYLOAD,2024-06-28 22:21:27,14.9914411,0.0003057,69.9999,84.4001,267.5818,92.4992,7.063e-05,7.67e-06,0.0,0 STARLINK-6061,1 56795U 23078AE  24180.93157061  .00000767  00000-0  70630-4 0  9999,2 56795  69.9999  84.4001 0003057 267.5818  92.4992 14.99144110 60492,6947.676,96.055,571.665,567.418,0.0
56795.0,STARLINK-6061,PAYLOAD,2024-06-29 03:09:41,14.99155814,0.000305,69.9999,83.8962,265.8335,94.2476,0.00015462,1.792e-05,0.0,0 STARLINK-6061,1 56795U 23078AE  24181.13173118  .00001792  00000-0  15462-3 0  9993,2 56795  69.9999  83.8962 0003050 265.8335  94.2476 14.99155814 60781,6947.64,96.054,571.624,567.386,0.0
56795.0,STARLINK-6061,PAYLOAD,2024-06-29 11:10:07,14.99143527,0.0002897,69.9998,83.053,274.6055,85.4773,5.2832e-05,5.5e-06,0.0,0 STARLINK-6061,1 56795U 23078AE  24181.46536065  .00000550  00000-0  52832-4 0  9997,2 56795  69.9998  83.0530 0002897 274.6055  85.4773 14.99143527 60834,6947.678,96.055,571.556,567.531,0.0
56795.0,STARLINK-6061,PAYLOAD,2024-06-29 19:10:34,14.99112487,0.0003307,69.9998,82.2105,270.6948,89.3832,-0.0002253,-2.836e-05,0.0,0 STARLINK-6061,1 56795U 23078AE  24181.79900777 -.00002836  00000-0 -22530-3 0  9990,2 56795  69.9998  82.2105 0003307 270.6948  89.3832 14.99112487 60882,6947.774,96.057,571.937,567.342,0.0
56795.0,STARLINK-6061,PAYLOAD,2024-06-29 22:22:47,14.9907617,0.0003041,69.9999,81.8738,269.4467,90.6344,-0.00061005,-7.507e-05,0.0,0 STARLINK-6061,1 56795U 23078AE  24181.93249176 -.00007507  00000-0 -61005-3 0  9995,2 56795  69.9999  81.8738 0003041 269.4467  90.6344 14.99076170 60642,6947.886,96.059,571.864,567.639,0.0
56795.0,STARLINK-6061,PAYLOAD,2024-06-30 03:11:12,14.989544,0.0002941,69.9999,81.3696,283.0118,77.0712,-0.0019663,-0.00023857,0.0,0 STARLINK-6061,1 56795U 23078AE  24182.13278651 -.00023857  00000-0 -19663-2 0  9996,2 56795  69.9999  81.3696 0002941 283.0118  77.0712 14.98954400 60933,6948.263,96.067,572.171,568.084,0.0
56795.0,STARLINK-6061,PAYLOAD,2024-06-30 11:11:50,14.988453,0.0002553,69.9997,80.5285,292.1861,67.9028,-0.0029479,-0.00035559,0.0,0 STARLINK-6061,1 56795U 23078AE  24182.46655114 -.00035559  00000-0 -29479-2 0  9993,2 56795  69.9997  80.5285 0002553 292.1861  67.9028 14.98845300 60724,6948.6,96.074,572.239,568.691,0.0
56795.0,STARLINK-6061,PAYLOAD,2024-06-30 20:48:39,14.98683952,0.0003058,70.0001,79.5187,273.3036,86.7774,-0.0044025,-0.00052711,0.0,0 STARLINK-6061,1 56795U 23078AE  24182.86712370 -.00052711  00000-0 -44025-2 0  9998,2 56795  70.0001  79.5187 0003058 273.3036  86.7774 14.98683952 61044,6949.099,96.084,573.089,568.839,0.0
56795.0,STARLINK-6061,PAYLOAD,2024-06-30 22:24:46,14.98674829,0.0003417,69.9981,79.3488,268.0817,91.9951,-0.0043805,-0.00052439,0.0,0 STARLINK-6061,1 56795U 23078AE  24182.93387051 -.00052439  00000-0 -43805-2 0  9992,2 56795  69.9981  79.3488 0003417 268.0817  91.9951 14.98674829 60796,6949.127,96.085,573.366,568.617,0.0
56795.0,STARLINK-6061,PAYLOAD,2024-07-01 03:13:07,14.98656246,0.00031,69.9991,78.8423,269.6614,90.419,-0.0044891,-0.000537,0.0,0 STARLINK-6061,1 56795U 23078AE  24183.13411863 -.00053700  00000-0 -44891-2 0  9992,2 56795  69.9991  78.8423 0003100 269.6614  90.4190 14.98656246 61086,6949.184,96.086,573.203,568.895,0.0
56795.0,STARLINK-6061,PAYLOAD,2024-07-01 09:37:35,14.98636396,0.0003103,69.9993,78.1697,271.1108,88.9696,-0.0043792,-0.00052371,0.0,0 STARLINK-6061,1 56795U 23078AE  24183.40110939 -.00052371  00000-0 -43792-2 0  9994,2 56795  69.9993  78.1697 0003103 271.1108  88.9696 14.98636396 60865,6949.246,96.087,573.267,568.954,0.0
56795.0,STARLINK-6061,PAYLOAD,2024-07-01 19:14:19,14.98583526,0.0003105,69.9992,77.1594,270.3375,89.7428,-0.0037721,-0.00045108,0.0,0 STARLINK-6061,1 56795U 23078AE  24183.80161073 -.00045108  00000-0 -37721-2 0  9998,2 56795  69.9992  77.1594 0003105 270.3375  89.7428 14.98583526 61182,6949.409,96.091,573.432,569.116,0.0
56795.0,STARLINK-6061,PAYLOAD,2024-07-01 22:26:33,14.98569832,0.000342,69.9992,76.8229,269.5651,90.5116,-0.0036175,-0.0004326,0.0,0 STARLINK-6061,1 56795U 23078AE  24183.93511358 -.00043260  00000-0 -36175-2 0  9996,2 56795  69.9992  76.8229 0003420 269.5651  90.5116 14.98569832 60941,6949.451,96.092,573.693,568.94,0.0
56795.0,STARLINK-6061,PAYLOAD,2024-07-02 09:39:26,14.98518469,0.0002962,69.9992,75.644,275.8842,84.1979,-0.0029921,-0.00035786,0.0,0 STARLINK-6061,1 56795U 23078AE  24184.40239218 -.00035786  00000-0 -29921-2 0  9996,2 56795  69.9992  75.6440 0002962 275.8842  84.1979 14.98518469 61278,6949.61,96.095,573.534,569.417,0.0
56795.0,STARLINK-6061,PAYLOAD,2024-07-02 20:52:25,14.98333912,0.0002595,70.0007,74.467,269.5742,90.512,-0.00014645,-1.84e-05,0.0,0 STARLINK-6061,1 56795U 23078AE  24184.86973970 -.00001840  00000-0 -14645-3 0  9998,2 56795  70.0007  74.4670 0002595 269.5742  90.5120 14.98333912 61346,6950.181,96.107,573.849,570.242,0.0
56795.0,STARLINK-6061,PAYLOAD,2024-07-02 22:28:33,14.98333824,0.0002532,70.0002,74.2988,268.792,91.2949,-0.00015942,-1.995e-05,0.0,0 STARLINK-6061,1 56795U 23078AE  24184.93649991 -.00001995  00000-0 -15942-3 0  9991,2 56795  70.0002  74.2988 0002532 268.7920  91.2949 14.98333824 61092,6950.181,96.107,573.806,570.286,0.0
56795.0,STARLINK-6061,PAYLOAD,2024-07-03 22:30:34,14.98331536,0.000267,70.0001,71.774,266.6549,93.4305,-6.0049e-05,-8.09e-06,0.0,0 STARLINK-6061,1 56795U 23078AE  24185.93790002 -.00000809  00000-0 -60049-4 0  9994,2 56795  70.0001  71.7740 0002670 266.6549  93.4305 14.98331536 61241,6950.188,96.107,573.909,570.197,0.0
56795.0,STARLINK-6061,PAYLOAD,2024-07-04 01:42:50,14.98333204,0.0002657,70.0002,71.4373,267.3577,92.7278,-4.0436e-05,-5.75e-06,0.0,0 STARLINK-6061,1 56795U 23078AE  24186.07141829 -.00000575  00000-0 -40436-4 0  9995,2 56795  70.0002  71.4373 0002657 267.3577  92.7278 14.98333204 61521,6950.183,96.107,573.895,570.201,0.0
56795.0,STARLINK-6061,PAYLOAD,2024-07-04 09:43:30,14.98335899,0.0002782,70.0,70.5952,269.191,90.893,-0.00010345,-1.327e-05,0.0,0 STARLINK-6061,1 56795U 23078AE  24186.40521720 -.00001327  00000-0 -10345-3 0  9995,2 56795  70.0000  70.5952 0002782 269.1910  90.8930 14.98335899 61315,6950.175,96.107,573.973,570.106,0.0
56795.0,STARLINK-6061,PAYLOAD,2024-07-04 20:56:27,14.98323372,0.0002899,70.0,69.4171,268.3092,91.7734,5.0026e-05,5.04e-06,0.0,0 STARLINK-6061,1 56795U 23078AE  24186.87254172  .00000504  00000-0  50026-4 0  9995,2 56795  70.0000  69.4171 0002899 268.3092  91.7734 14.98323372 61647,6950.213,96.107,574.093,570.064,0.0
56795.0,STARLINK-6061,PAYLOAD,2024-07-04 22:32:35,14.98323547,0.0002985,69.9999,69.2487,270.4248,89.6569,4.6296e-05,4.59e-06,0.0,0 STARLINK-6061,1 56795U 23078AE  24186.93930197  .00000459  00000-0  46296-4 0  9993,2 56795  69.9999  69.2487 0002985 270.4248  89.6569 14.98323547 61390,6950.213,96.107,574.152,570.003,0.0
56795.0,STARLINK-6061,PAYLOAD,2024-07-05 06:32:26,14.98920929,0.0005405,70.0,68.4048,314.3632,45.7084,0.0063572,0.00077803,0.0,0 STARLINK-6061,1 56795U 23078AE  24187.27252477  .00077803  00000-0  63572-2 0  9990,2 56795  70.0000  68.4048 0005405 314.3632  45.7084 14.98920929 61702,6948.366,96.069,573.987,566.476,0.0
56795.0,STARLINK-6061,PAYLOAD,2024-07-06 06:00:00,14.98344096,0.0003276,70.0011,65.9431,272.5662,315.4663,-0.0032524,-0.00038702,0.0,0 STARLINK-6061,1 56795U 23078AE  24188.25001157 -.00038702  00000-0 -32524-2 0  9996,2 56795  70.0011  65.9431 0003276 272.5662 315.4663 14.98344096 61855,6950.149,96.106,574.291,569.737,0.0
